{
    "links": {
        "self": "http://www.neowsapp.com/rest/v1/neo/3645266?api_key=iIulBulltgU6a56xZRHN4H3l9WmuAYTsLGpBGhQ2"
    },
    "id": "3645266",
    "neo_reference_id": "3645266",
    "name": "(2013 PB7)",
    "designation": "2013 PB7",
    "nasa_jpl_url": "http://ssd.jpl.nasa.gov/sbdb.cgi?sstr=3645266",
    "absolute_magnitude_h": 25.3,
    "estimated_diameter": {
        "kilometers": {
            "estimated_diameter_min": 0.0231502122,
            "estimated_diameter_max": 0.0517654482
        },
        "meters": {
            "estimated_diameter_min": 23.150212221,
            "estimated_diameter_max": 51.7654482198
        },
        "miles": {
            "estimated_diameter_min": 0.0143848705,
            "estimated_diameter_max": 0.0321655483
        },
        "feet": {
            "estimated_diameter_min": 75.9521422633,
            "estimated_diameter_max": 169.8341531374
        }
    },
    "is_potentially_hazardous_asteroid": false,
    "close_approach_data": [
        {
            "close_approach_date": "2013-08-06",
            "close_approach_date_full": "2013-Aug-06 11:00",
            "epoch_date_close_approach": 1375786800000,
            "relative_velocity": {
                "kilometers_per_second": "9.515958579",
                "kilometers_per_hour": "34257.4508842996",
                "miles_per_hour": "21286.2477453027"
            },
            "miss_distance": {
                "astronomical": "0.0439657151",
                "lunar": "17.1026631739",
                "kilometers": "6577177.331986837",
                "miles": "4086868.4834868706"
            },
            "orbiting_body": "Earth"
        }
    ],
    "orbital_data": {
        "orbit_id": "6",
        "orbit_determination_date": "2017-04-06 08:45:14",
        "first_observation_date": "2013-08-04",
        "last_observation_date": "2013-08-05",
        "data_arc_in_days": 1,
        "observations_used": 26,
        "orbit_uncertainty": "8",
        "minimum_orbit_intersection": ".0417018",
        "jupiter_tisserand_invariant": "3.965",
        "epoch_osculation": "2456509.5",
        "eccentricity": ".4195950971734906",
        "semi_major_axis": "1.774669312807355",
        "inclination": "12.94041893116563",
        "ascending_node_longitude": "131.2558837405051",
        "orbital_period": "863.524345728016",
        "perihelion_distance": "1.030026770049141",
        "perihelion_argument": "205.9403530865675",
        "aphelion_distance": "2.519311855565568",
        "perihelion_time": "2456531.194101438157",
        "mean_anomaly": "350.9558120088065",
        "mean_motion": ".4168961787597232",
        "equinox": "J2000",
        "orbit_class": {
            "orbit_class_type": "AMO",
            "orbit_class_description": "Near-Earth asteroid orbits similar to that of 1221 Amor",
            "orbit_class_range": "1.017 AU < q (perihelion) < 1.3 AU"
        }
    },
    "is_sentry_object": false
}